{
    "links": {
        "self": "http://www.neowsapp.com/rest/v1/neo/3397494?api_key=iIulBulltgU6a56xZRHN4H3l9WmuAYTsLGpBGhQ2"
    },
    "id": "3397494",
    "neo_reference_id": "3397494",
    "name": "(2007 XN)",
    "designation": "2007 XN",
    "nasa_jpl_url": "http://ssd.jpl.nasa.gov/sbdb.cgi?sstr=3397494",
    "absolute_magnitude_h": 19.9,
    "estimated_diameter": {
        "kilometers": {
            "estimated_diameter_min": 0.2783267681,
            "estimated_diameter_max": 0.6223575734
        },
        "meters": {
            "estimated_diameter_min": 278.3267680719,
            "estimated_diameter_max": 622.3575733667
        },
        "miles": {
            "estimated_diameter_min": 0.1729441822,
            "estimated_diameter_max": 0.3867149477
        },
        "feet": {
            "estimated_diameter_min": 913.1455937611,
            "estimated_diameter_max": 2041.8556210042
        }
    },
    "is_potentially_hazardous_asteroid": true,
    "close_approach_data": [
        {
            "close_approach_date": "2007-12-03",
            "close_approach_date_full": "2007-Dec-03 19:37",
            "epoch_date_close_approach": 1196710620000,
            "relative_velocity": {
                "kilometers_per_second": "18.8373016142",
                "kilometers_per_hour": "67814.2858110152",
                "miles_per_hour": "42137.1599807389"
            },
            "miss_distance": {
                "astronomical": "0.1239467979",
                "lunar": "48.2153043831",
                "kilometers": "18542176.959160473",
                "miles": "11521574.4999136074"
            },
            "orbiting_body": "Earth"
        },
        {
            "close_approach_date": "2115-03-02",
            "close_approach_date_full": "2115-Mar-02 19:44",
            "epoch_date_close_approach": 4580999040000,
            "relative_velocity": {
                "kilometers_per_second": "5.8072030926",
                "kilometers_per_hour": "20905.9311334671",
                "miles_per_hour": "12990.1325979035"
            },
            "miss_distance": {
                "astronomical": "1.955897252",
                "lunar": "760.844031028",
                "kilometers": "292598062.83805324",
                "miles": "181812005.512845112"
            },
            "orbiting_body": "Juptr"
        },
        {
            "close_approach_date": "2116-12-15",
            "close_approach_date_full": "2116-Dec-15 16:17",
            "epoch_date_close_approach": 4637492220000,
            "relative_velocity": {
                "kilometers_per_second": "15.8783296957",
                "kilometers_per_hour": "57161.9869044257",
                "miles_per_hour": "35518.2356962527"
            },
            "miss_distance": {
                "astronomical": "0.0809059909",
                "lunar": "31.4724304601",
                "kilometers": "12103363.908879383",
                "miles": "7520681.5943381654"
            },
            "orbiting_body": "Earth"
        }
    ],
    "orbital_data": {
        "orbit_id": "10",
        "orbit_determination_date": "2017-04-06 09:05:00",
        "first_observation_date": "2007-12-03",
        "last_observation_date": "2008-01-05",
        "data_arc_in_days": 33,
        "observations_used": 47,
        "orbit_uncertainty": "7",
        "minimum_orbit_intersection": ".0341304",
        "jupiter_tisserand_invariant": "3.322",
        "epoch_osculation": "2459000.5",
        "eccentricity": ".5695469029688091",
        "semi_major_axis": "2.216856098473286",
        "inclination": "24.73566643675529",
        "ascending_node_longitude": "256.5298604121473",
        "orbital_period": "1205.604002824871",
        "perihelion_distance": ".9542525732603089",
        "perihelion_argument": "215.4546921808314",
        "aphelion_distance": "3.479459623686263",
        "perihelion_time": "2459293.667011159024",
        "mean_anomaly": "272.4587146609037",
        "mean_motion": ".2986055115580886",
        "equinox": "J2000",
        "orbit_class": {
            "orbit_class_type": "APO",
            "orbit_class_description": "Near-Earth asteroid orbits which cross the Earth’s orbit similar to that of 1862 Apollo",
            "orbit_class_range": "a (semi-major axis) > 1.0 AU; q (perihelion) < 1.017 AU"
        }
    },
    "is_sentry_object": false
}